[
    {
        "Altitude(m)": 559716.1670382089,
        "Argument of Periapsis(deg)": 0.006622991110713501,
        "Eccentricity": 0.0,
        "Inclination(deg)": 53.0,
        "Latitude(deg)": -22.420582540945443,
        "Longitude(deg)": -47.76149749090796,
        "Mean Anomaly(deg)": -151.72660713242243,
        "RAAN(deg)": 214.990143368528,
        "Satellite Name": "Starlink Shell 1 958",
        "Satellite Number": 958,
        "Semi-Major Axis(m)": 6931778.249405717,
        "Time(s)": 190
    },
    {
        "Altitude(m)": 559880.797135831,
        "Argument of Periapsis(deg)": 0.0069715695902247375,
        "Eccentricity": 0.0,
        "Inclination(deg)": 53.0,
        "Latitude(deg)": -22.897917035726003,
        "Longitude(deg)": -47.3615077911783,
        "Mean Anomaly(deg)": -151.0997759288657,
        "RAAN(deg)": 214.98962459845058,
        "Satellite Name": "Starlink Shell 1 958",
        "Satellite Number": 958,
        "Semi-Major Axis(m)": 6931778.249405717,
        "Time(s)": 200
    },
    {
        "Altitude(m)": 560046.5483264022,
        "Argument of Periapsis(deg)": 0.007320148069735974,
        "Eccentricity": 0.0,
        "Inclination(deg)": 53.0,
        "Latitude(deg)": -23.37397505230858,
        "Longitude(deg)": -46.95843959841963,
        "Mean Anomaly(deg)": -150.472944725309,
        "RAAN(deg)": 214.98910582837306,
        "Satellite Name": "Starlink Shell 1 958",
        "Satellite Number": 958,
        "Semi-Major Axis(m)": 6931778.249405717,
        "Time(s)": 210
    },
    {
        "Altitude(m)": 560213.3613918305,
        "Argument of Periapsis(deg)": 0.007668726549247212,
        "Eccentricity": 0.0,
        "Inclination(deg)": 53.0,
        "Latitude(deg)": -23.848718863434282,
        "Longitude(deg)": -46.55220749814738,
        "Mean Anomaly(deg)": -149.84611352175224,
        "RAAN(deg)": 214.98858705829562,
        "Satellite Name": "Starlink Shell 1 958",
        "Satellite Number": 958,
        "Semi-Major Axis(m)": 6931778.249405717,
        "Time(s)": 220
    },
    {
        "Altitude(m)": 560381.1764915193,
        "Argument of Periapsis(deg)": 0.00801730502875845,
        "Eccentricity": 0.0,
        "Inclination(deg)": 53.0,
        "Latitude(deg)": -24.322109992727334,
        "Longitude(deg)": -46.14272488430078,
        "Mean Anomaly(deg)": -149.2192823181956,
        "RAAN(deg)": 214.98806828821813,
        "Satellite Name": "Starlink Shell 1 958",
        "Satellite Number": 958,
        "Semi-Major Axis(m)": 6931778.249405717,
        "Time(s)": 230
    },
    {
        "Altitude(m)": 560549.933189136,
        "Argument of Periapsis(deg)": 0.008365883508269684,
        "Eccentricity": 0.0,
        "Inclination(deg)": 53.0,
        "Latitude(deg)": -24.794109189931827,
        "Longitude(deg)": -45.7299034366294,
        "Mean Anomaly(deg)": -148.59245111463883,
        "RAAN(deg)": 214.98754951814067,
        "Satellite Name": "Starlink Shell 1 958",
        "Satellite Number": 958,
        "Semi-Major Axis(m)": 6931778.249405717,
        "Time(s)": 240
    },
    {
        "Altitude(m)": 560719.5704797228,
        "Argument of Periapsis(deg)": 0.008714461987780921,
        "Eccentricity": 0.0,
        "Inclination(deg)": 53.0,
        "Latitude(deg)": -25.264676405631803,
        "Longitude(deg)": -45.31365411220368,
        "Mean Anomaly(deg)": -147.96561991108214,
        "RAAN(deg)": 214.9870307480632,
        "Satellite Name": "Starlink Shell 1 958",
        "Satellite Number": 958,
        "Semi-Major Axis(m)": 6931778.249405717,
        "Time(s)": 250
    },
    {
        "Altitude(m)": 560890.0268170235,
        "Argument of Periapsis(deg)": 0.009063040467292158,
        "Eccentricity": 0.0,
        "Inclination(deg)": 53.0,
        "Latitude(deg)": -25.733770765451133,
        "Longitude(deg)": -44.89388662543333,
        "Mean Anomaly(deg)": -147.33878870752542,
        "RAAN(deg)": 214.9865119779857,
        "Satellite Name": "Starlink Shell 1 958",
        "Satellite Number": 958,
        "Semi-Major Axis(m)": 6931778.249405717,
        "Time(s)": 260
    },
    {
        "Altitude(m)": 561061.2401410538,
        "Argument of Periapsis(deg)": 0.009411618946803396,
        "Eccentricity": 0.0,
        "Inclination(deg)": 53.0,
        "Latitude(deg)": -26.201350543734204,
        "Longitude(deg)": -44.470508929612826,
        "Mean Anomaly(deg)": -146.7119575039687,
        "RAAN(deg)": 214.98599320790825,
        "Satellite Name": "Starlink Shell 1 958",
        "Satellite Number": 958,
        "Semi-Major Axis(m)": 6931778.249405717,
        "Time(s)": 270
    },
    {
        "Altitude(m)": 561233.1479059542,
        "Argument of Periapsis(deg)": 0.009760197426314633,
        "Eccentricity": 0.0,
        "Inclination(deg)": 53.0,
        "Latitude(deg)": -26.66737313671187,
        "Longitude(deg)": -44.04342821302276,
        "Mean Anomaly(deg)": -146.08512630041201,
        "RAAN(deg)": 214.9854744378308,
        "Satellite Name": "Starlink Shell 1 958",
        "Satellite Number": 958,
        "Semi-Major Axis(m)": 6931778.249405717,
        "Time(s)": 280
    },
    {
        "Altitude(m)": 561405.6871080355,
        "Argument of Periapsis(deg)": 0.01010877590582587,
        "Eccentricity": 0.0,
        "Inclination(deg)": 53.0,
        "Latitude(deg)": -27.131795035153395,
        "Longitude(deg)": -43.61255038400458,
        "Mean Anomaly(deg)": -145.45829509685527,
        "RAAN(deg)": 214.9849556677533,
        "Satellite Name": "Starlink Shell 1 958",
        "Satellite Number": 958,
        "Semi-Major Axis(m)": 6931778.249405717,
        "Time(s)": 290
    },
    {
        "Altitude(m)": 561578.7943140259,
        "Argument of Periapsis(deg)": 0.010457354385337106,
        "Eccentricity": 0.0,
        "Inclination(deg)": 53.0,
        "Latitude(deg)": -27.59457179651231,
        "Longitude(deg)": -43.17777955806065,
        "Mean Anomaly(deg)": -144.8314638932986,
        "RAAN(deg)": 214.98443689767583,
        "Satellite Name": "Starlink Shell 1 958",
        "Satellite Number": 958,
        "Semi-Major Axis(m)": 6931778.249405717,
        "Time(s)": 300
    },
    {
        "Altitude(m)": 561752.4056895523,
        "Argument of Periapsis(deg)": 0.010805932864848343,
        "Eccentricity": 0.0,
        "Inclination(deg)": 53.0,
        "Latitude(deg)": -28.05565801657699,
        "Longitude(deg)": -42.739019060045244,
        "Mean Anomaly(deg)": -144.20463268974186,
        "RAAN(deg)": 214.98391812759834,
        "Satellite Name": "Starlink Shell 1 958",
        "Satellite Number": 958,
        "Semi-Major Axis(m)": 6931778.249405717,
        "Time(s)": 310
    },
    {
        "Altitude(m)": 561926.4570277532,
        "Argument of Periapsis(deg)": 0.01115451134435958,
        "Eccentricity": 0.0,
        "Inclination(deg)": 53.0,
        "Latitude(deg)": -28.515007300633425,
        "Longitude(deg)": -42.296170915902074,
        "Mean Anomaly(deg)": -143.57780148618514,
        "RAAN(deg)": 214.9833993575209,
        "Satellite Name": "Starlink Shell 1 958",
        "Satellite Number": 958,
        "Semi-Major Axis(m)": 6931778.249405717,
        "Time(s)": 320
    },
    {
        "Altitude(m)": 562100.8837780968,
        "Argument of Periapsis(deg)": 0.011503089823870818,
        "Eccentricity": 0.0,
        "Inclination(deg)": 53.0,
        "Latitude(deg)": -28.972572234156637,
        "Longitude(deg)": -41.84913534703996,
        "Mean Anomaly(deg)": -142.95097028262842,
        "RAAN(deg)": 214.9828805874434,
        "Satellite Name": "Starlink Shell 1 958",
        "Satellite Number": 958,
        "Semi-Major Axis(m)": 6931778.249405717,
        "Time(s)": 330
    },
    {
        "Altitude(m)": 562275.6210753378,
        "Argument of Periapsis(deg)": 0.011851668303382053,
        "Eccentricity": 0.0,
        "Inclination(deg)": 53.0,
        "Latitude(deg)": -29.428304353049096,
        "Longitude(deg)": -41.39781178045491,
        "Mean Anomaly(deg)": -142.3241390790717,
        "RAAN(deg)": 214.98236181736596,
        "Satellite Name": "Starlink Shell 1 958",
        "Satellite Number": 958,
        "Semi-Major Axis(m)": 6931778.249405717,
        "Time(s)": 340
    },
    {
        "Altitude(m)": 562450.6037686124,
        "Argument of Periapsis(deg)": 0.012200246782893292,
        "Eccentricity": 0.0,
        "Inclination(deg)": 53.0,
        "Latitude(deg)": -29.882154113444372,
        "Longitude(deg)": -40.94209834909654,
        "Mean Anomaly(deg)": -141.69730787551498,
        "RAAN(deg)": 214.98184304728846,
        "Satellite Name": "Starlink Shell 1 958",
        "Satellite Number": 958,
        "Semi-Major Axis(m)": 6931778.249405717,
        "Time(s)": 350
    },
    {
        "Altitude(m)": 562625.7664506537,
        "Argument of Periapsis(deg)": 0.012548825262404526,
        "Eccentricity": 0.0,
        "Inclination(deg)": 53.0,
        "Latitude(deg)": -30.33407086110153,
        "Longitude(deg)": -40.48189139561767,
        "Mean Anomaly(deg)": -141.0704766719582,
        "RAAN(deg)": 214.981324277211,
        "Satellite Name": "Starlink Shell 1 958",
        "Satellite Number": 958,
        "Semi-Major Axis(m)": 6931778.249405717,
        "Time(s)": 360
    },
    {
        "Altitude(m)": 562801.0434871336,
        "Argument of Periapsis(deg)": 0.012897403741915765,
        "Eccentricity": 0.0,
        "Inclination(deg)": 53.0,
        "Latitude(deg)": -30.784002800420772,
        "Longitude(deg)": -40.01708649266261,
        "Mean Anomaly(deg)": -140.44364546840154,
        "RAAN(deg)": 214.98080550713354,
        "Satellite Name": "Starlink Shell 1 958",
        "Satellite Number": 958,
        "Semi-Major Axis(m)": 6931778.249405717,
        "Time(s)": 370
    }
]